COSMOS 2251 DEB         
1 35469U 93036ALP 17345.70391775  .00000058  00000-0  22924-4 0  9993
2 35469  74.0175 103.2517 0080939 249.8322 109.4118 14.47559950457998
